[
    [
        "GPS BIIR-8  (PRN 16)",
        "1 27663U 03005A   26139.68543957  .00000019  00000+0  00000+0 0  9998",
        "2 27663  54.8868 216.1014 0147974  53.0174 307.2353  2.00562030170731"
    ],
    [
        "GPS BIIR-13 (PRN 02)",
        "1 28474U 04045A   26139.13074609 -.00000070  00000+0  00000+0 0  9995",
        "2 28474  55.1533 326.0661 0169836 315.6449 222.9389  2.00554454157847"
    ],
    [
        "GPS BIIRM-1 (PRN 17)",
        "1 28874U 05038A   26139.40235043 -.00000028  00000+0  00000+0 0  9996",
        "2 28874  54.9026 274.3386 0127705 295.9756  41.1421  2.00567559151251"
    ],
    [
        "GPS BIIRM-2 (PRN 31)",
        "1 29486U 06042A   26139.12470000  .00000061  00000+0  00000+0 0  9991",
        "2 29486  54.7064 152.4926 0106183  53.8066 340.8374  2.00571442143814"
    ],
    [
        "GPS BIIRM-3 (PRN 12)",
        "1 29601U 06052A   26138.00419502  .00000040  00000+0  00000+0 0  9994",
        "2 29601  54.9389 215.2027 0085788  90.5584 270.4981  2.00556446142802"
    ],
    [
        "GPS BIIRM-4 (PRN 15)",
        "1 32260U 07047A   26139.80475677 -.00000014  00000+0  00000+0 0  9990",
        "2 32260  54.0753  81.2350 0165841  86.8448 275.0221  2.00556553136247"
    ],
    [
        "GPS BIIF-1  (PRN 25)",
        "1 36585U 10022A   26137.60907735  .00000049  00000+0  00000+0 0  9999",
        "2 36585  54.2733 209.7940 0126408  66.1106 340.3358  2.00560837116987"
    ],
    [
        "GPS BIIF-3  (PRN 24)",
        "1 38833U 12053A   26139.39937253  .00000056  00000+0  00000+0 0  9997",
        "2 38833  53.5802 144.7785 0178823  65.3880 296.4803  2.00566974 98867"
    ],
    [
        "GPS BIIF-4  (PRN 27)",
        "1 39166U 13023A   26139.26556125 -.00000025  00000+0  00000+0 0  9993",
        "2 39166  54.5277 270.1514 0141802  50.8716 310.3655  2.00563554 95300"
    ],
    [
        "GPS BIIF-5  (PRN 30)",
        "1 39533U 14008A   26139.26680808  .00000058  00000+0  00000+0 0  9996",
        "2 39533  53.6493 150.4992 0084122 230.7398 128.5374  2.00557877 89103"
    ],
    [
        "GPS BIIF-6  (PRN 06)",
        "1 39741U 14026A   26139.54226747 -.00000073  00000+0  00000+0 0  9994",
        "2 39741  56.5117 332.6324 0038515 326.8833  32.8887  2.00563006 87967"
    ],
    [
        "GPS BIIF-7  (PRN 09)",
        "1 40105U 14045A   26139.13492900  .00000000  00000+0  00000+0 0  9991",
        "2 40105  55.3351  89.6219 0032265 118.5912 241.6989  2.00556383 85491"
    ],
    [
        "GPS BIIF-8  (PRN 03)",
        "1 40294U 14068A   26139.50575603 -.00000076  00000+0  00000+0 0  9992",
        "2 40294  56.9685  32.0599 0066215  69.5616 291.1883  2.00574328 84635"
    ],
    [
        "GPS BIIF-9  (PRN 26)",
        "1 40534U 15013A   26138.64489052  .00000041  00000+0  00000+0 0  9997",
        "2 40534  53.1705 205.3995 0109037  40.0256 320.8571  2.00553076 81237"
    ],
    [
        "GPS BIIF-10 (PRN 08)",
        "1 40730U 15033A   26138.80395372 -.00000023  00000+0  00000+0 0  9997",
        "2 40730  54.0064 268.2976 0115012  30.0973 330.5439  2.00557665 79400"
    ],
    [
        "GPS BIIF-11 (PRN 10)",
        "1 41019U 15062A   26138.86115367 -.00000073  00000+0  00000+0 0  9995",
        "2 41019  56.9406  31.9410 0111391 231.3554 127.6822  2.00566892 77240"
    ],
    [
        "GPS BIIF-12 (PRN 32)",
        "1 41328U 16007A   26138.95018929  .00000001  00000+0  00000+0 0  9994",
        "2 41328  55.5069  90.6182 0096120 247.2933 111.6541  2.00553010 75258"
    ],
    [
        "GPS BIII-3  (PRN 23)",
        "1 45854U 20041A   26139.57960495 -.00000078  00000+0  00000+0 0  9993",
        "2 45854  56.6519  30.0532 0062831 204.8599 345.4759  2.00559055 43465"
    ],
    [
        "GPS BIII-4  (PRN 14)",
        "1 46826U 20078A   26139.58793914  .00000023  00000+0  00000+0 0  9993",
        "2 46826  53.9834 211.9386 0072265 206.3521 325.4222  2.00564748 40933"
    ],
    [
        "GPS BIII-5  (PRN 11)",
        "1 48859U 21054A   26137.34480044 -.00000068  00000+0  00000+0 0  9995",
        "2 48859  55.1876 333.6992 0024566 229.1389 308.8619  2.00570739 36131"
    ],
    [
        "GPS BIII-7  (PRN 01)",
        "1 62339U 24242A   26139.67433785 -.00000078  00000+0  00000+0 0  9995",
        "2 62339  54.8610 335.3368 0017277   3.4958 177.0470  2.00570769 10680"
    ],
    [
        "GPS BIII-8  (PRN 21)",
        "1 64202U 25116A   26139.41840637 -.00000078  00000+0  00000+0 0  9997",
        "2 64202  55.2165  32.2881 0008489 335.9711 202.0396  2.00577638  7290"
    ],
    [
        "GPS BIII-9  (PRN 20)",
        "1 67588U 26017A   26139.28079319  .00000000  00000+0  00000+0 0  9998",
        "2 67588  55.0708  89.9148 0022808 256.0207 103.6915  2.00571625431036"
    ]
]